full_name,a,e,i,om,w,q,ad,per_y,data_arc,condition_code,n_obs_used,n_del_obs_used,n_dop_obs_used,H
"437912 (2002 CA61)",2.5463324908827,.211574465332253,12.43927085913737,350.2139411789971,199.3891807143096,2.007593555566049,3.085071426199351,4.06331853936718,5370,0,72,,,17.0
"437923 (2002 NB70)",2.644674781415056,.3125319965843287,11.3402010149077,256.7764455545305,68.32350463243209,1.818129291663185,3.471220271166926,4.30097198016843,4865,0,185,,,17.1
"437925 (2002 PJ104)",2.658801626086231,.2697278719045897,9.901697774279135,291.4051409675701,54.65617837299379,1.94164872166553,3.375954530506933,4.33547918848877,5310,0,176,,,17.0
"437960 (2002 UQ59)",2.740113997585813,.1971401723317164,9.651011968101992,91.17846351790325,183.5649756811708,2.199927451893197,3.280300543278428,4.53587574580026,5564,0,64,,,16.8
"437970 (2003 ND12)",2.535240630455151,.10582995336046,10.22250727624994,142.0681026592132,235.8453726203775,2.266936232776539,2.803545028133763,4.03679766348951,5373,0,114,,,16.7
"438099 (2005 CH65)",2.754697970467432,.2597940054974939,17.08163184362127,142.3054794964107,59.40403163014332,2.039043950783881,3.470351990150984,4.57213648070995,3899,0,109,,,16.6
"438273 (2005 YC25)",2.629177434249407,.2326331766444896,13.34663523256306,287.2679801933097,231.8102569203872,2.017543535757959,3.240811332740855,4.26322296314499,3880,0,94,,,16.8
"438293 (2006 BE33)",2.65181087620584,.177390270682685,12.519247154263,141.2707056120232,60.98043240774196,2.181405427076398,3.122216325335282,4.31839161077088,3456,0,76,,,17.3
"438299 (2006 DO36)",2.623380607064593,.1670938742635261,4.148368041567061,175.0662387769718,358.5939193459435,2.185029777762369,3.061731436366817,4.24913136580781,5716,0,65,,,17.3
"438301 (2006 DB50)",2.623353032944599,.132040727756633,11.07049494888355,303.3769343130401,181.8064942825756,2.276963589312023,2.969742476577174,4.24906437262164,4352,0,110,,,16.6
"438329 (2006 KL65)",2.585532297583288,.08403314425556881,11.18563730938613,108.8104221842047,170.7706396726994,2.368261889043039,2.802802706123537,4.15750856948524,4318,0,89,,,17.2
"438399 (2006 UE143)",2.768462979758787,.3533384569689154,18.28775442316805,213.60611934907,87.20683829417806,1.790258542315251,3.746667417202322,4.60644916620082,3750,0,228,,,16.6
"438582 (2007 UC107)",2.629493893972825,.2024862150299071,2.425814145677992,21.72360068109572,292.3182986747166,2.097057627938015,3.161930160007634,4.26399269759036,4862,0,99,,,17.3
"438705 (2008 RM111)",2.57697632165685,.1110624691348332,12.12260955903162,25.00262946003287,173.1216386829093,2.29077096847164,2.86318167484206,4.13688877356641,4366,0,59,,,17.0
"438723 (2008 SH226)",2.597532005529719,.009561247387739117,8.75961028931261,27.67229220113158,358.6478888545395,2.572696359427279,2.622367651632159,4.18648523055973,4818,0,100,,,17.0
"438745 (2008 TA170)",2.674574982183541,.1462603788731596,10.04444965514044,220.3687965227487,279.2762830566122,2.283390631964702,3.065759332402379,4.37411673484465,4196,0,56,,,17.2
"438769 (2008 UC313)",2.754880201725303,.1501951748247436,13.83106598483107,253.6839005360656,196.4177038999622,2.341110488205946,3.168649915244659,4.57259017834045,3314,0,73,,,16.7
"438795 (2008 XU29)",2.774320048384903,.199117157522333,7.101683155217211,243.0369735845974,203.0467581366197,2.22190532629328,3.326734770476526,4.62107527147884,5149,0,122,,,16.9
"438810 (2008 YO114)",2.794328105889149,.1589636513319572,8.665925445635626,100.4456063206334,104.84918029481,2.350131507157498,3.2385247046208,4.67115523986931,4226,1,52,,,16.8
"438813 (2008 YC142)",2.665846893561128,.1323670471990997,28.13261146418096,109.8726609357915,265.609665915776,2.312976611975549,3.018717175146707,4.35272276666299,3344,0,103,,,16.4
"438914 (2010 BU65)",2.640308115060712,.2193372390302138,10.59456127634217,294.8591587648709,243.6707333081063,2.061190222914227,3.219426007207196,4.29032426919112,2924,0,91,,,17.2
"438919 (2010 CB36)",2.595202755961588,.2445572322739357,14.12863052513399,143.6005276775215,305.4524941655486,1.960527152773932,3.229878359149244,4.18085535813782,2380,0,81,,,17.0
"438921 (2010 CK59)",2.6465024249075,.2054529496014166,14.38845111111994,157.5723413912714,22.8758413510507,2.102770695582953,3.190234154232047,4.30543113034702,4294,0,137,,,16.3
"438928 (2010 DQ75)",2.735692365993385,.1032945230027357,9.99842407010779,357.0513865671243,264.371461260273,2.453110327965873,3.018274404020898,4.52490108648553,5665,0,68,,,17.1
"438929 (2010 EJ39)",2.803769646165154,.1894390808397392,3.507844538350458,74.1683041082842,137.78074133587,2.272626101509267,3.334913190821042,4.69484973726643,6007,0,162,,,16.6
"438930 (2010 ET44)",2.787654421045571,.163782340975386,8.717034615726963,88.59233285076509,67.86954678978076,2.331085854136343,3.244222987954799,4.65443107779109,5147,0,98,,,16.6
"438931 (2010 EB139)",2.783670522154331,.1587750784084816,8.944413538788627,67.38706519516839,143.8560971765216,2.341693016735898,3.225648027572764,4.64445701709925,2850,0,68,,,16.6
"438935 (2010 GU100)",2.692955290430924,.1874418178382142,8.893730336359367,165.2005636428372,22.97440084843757,2.188182855435515,3.197727725426332,4.41928405177846,3368,0,70,,,17.2
"438937 (2010 GL155)",2.62639542266463,.1975736122155749,13.88285830726853,114.2261660991209,68.23234570932385,2.107488991902328,3.145301853426933,4.25645818710536,3864,0,84,,,16.9
"438948 (2010 JL154)",2.73394863000448,.1035889711521825,10.3620924053869,69.1549899612465,124.747425995539,2.450741704239397,3.017155555769563,4.52057550394425,5626,0,43,,,16.9
"438950 (2010 KS35)",2.726194772420814,.1365009586652379,10.14195523011242,176.7660620116619,21.28801289040236,2.354066572477212,3.098322972364415,4.50135767730114,5121,0,76,,,16.9
"439073 (2011 KR11)",2.617282211830795,.1092265156489765,13.75317394875389,84.04920425578008,149.945221577194,2.331405595362471,2.903158828299119,4.23432347799381,4326,0,151,,,16.5
"439088 (2011 QB16)",2.766008493171259,.1750758151108694,2.655638052894147,46.63387259133115,238.6457388825161,2.281747301625713,3.250269684716805,4.60032448906322,3303,0,71,,,17.4
"439130 (2011 ST234)",2.776802676306237,.1787438072603986,4.31377725451701,28.79074506796202,254.6967201244479,2.280466393932396,3.273138958680078,4.62727948176982,4271,0,81,,,17.1
"439148 (2011 UZ120)",2.625616065373833,.2566328897782341,12.06993959246186,89.80917179834725,243.9693080168021,1.95179662706879,3.299435503678877,4.25456373382575,3310,0,66,,,17.0
"439169 (2011 UQ404)",2.688366636034394,.2968287675212682,11.74033645867029,287.0597318106069,6.989899236220668,1.890382080815007,3.486351191253781,4.40799352288951,3417,0,149,,,16.6
"439263 (2012 TT313)",2.603975655349989,.09406458699831483,12.5460401628804,137.3523549977196,292.3217184539618,2.359033760775826,2.848917549924151,4.20207289283144,3373,0,159,,,16.5
"439352 (2012 XU82)",2.706823185087253,.03856877315298956,13.10601980709312,91.09616461617043,233.8647917626137,2.60242433569637,2.811222034478135,4.45346490110006,5146,0,98,,,16.6
"439443 (2013 WX3)",2.648175318593604,.2570092214284252,12.11516671219327,244.36124586397,237.1004292056292,1.96756984175589,3.328780795431318,4.30951406632283,6214,0,107,,,16.7
"439449 (2013 XS20)",2.620889351011402,.2388552834021923,34.29054910576588,87.36831527354283,32.89733301247913,1.994876082309786,3.246902619713018,4.24308011231694,6239,0,172,,,16.2
"439470 (2013 YM64)",2.804088165156158,.1957737782343224,7.897528385783779,325.7287853119786,161.3861392212865,2.255121230561389,3.353055099750928,4.69564978940689,4695,0,62,,,16.8
"439491 (2013 YW147)",2.653165690623693,.08942492773522528,9.486909628888331,271.1828150129021,200.2664523864509,2.415906540470091,2.890424840777296,4.32170144320149,4310,0,61,,,16.9
"439524 (2014 BE51)",2.645681698023778,.1496104131473625,5.064306927747205,70.05537679783549,160.1546691346926,2.249860166126025,3.041503229921531,4.303428500912,2891,0,81,,,17.2
"439576 (2014 DX99)",2.730597760581117,.2158385245269968,5.018101620626319,298.5882233376403,299.0608169919707,2.141229568860567,3.319965952301666,4.5122670728986,5702,0,123,,,16.7
"439583 (2014 DP110)",2.736638684570096,.1193343078708841,8.717428937186495,310.3848263551348,324.5771474922204,2.410063801254236,3.063213567885955,4.52724914010273,3305,0,76,,,16.7
"439590 (2014 DN122)",2.600440881705146,.09016362138884722,4.391700896889553,137.3042455993576,99.97769504898366,2.365975714603003,2.834906048807289,4.19351962468453,5262,0,123,,,17.1
"439722 (2015 DB208)",2.761981973384806,.1260460481992695,8.975461254985447,130.3389014257565,127.8635454729376,2.413845060442031,3.110118886327581,4.59028300428732,3768,0,75,,,17.2
"439788 (2015 GL44)",2.700604439596924,.2221490115729582,5.643599344551325,99.2622765310546,87.39579025516237,2.100667832690925,3.300541046502924,4.43812641205865,4235,0,133,,,16.8
"439830 (2015 KS117)",2.709395838145043,.1236412869820269,9.852613594055647,114.1022083341444,183.0498931881057,2.374402649773043,3.044389026517044,4.45981548693989,4728,0,83,,,16.9
"439837 (1997 EU9)",2.607876821616075,.2025653847661414,7.584662702576231,298.7292436255065,284.3673485575086,2.079611249822713,3.136142393409437,4.21151948074628,7635,0,79,,,16.9
"439961 (2001 UM53)",2.791609904415832,.2796393099961519,12.9912509237691,189.9904957195889,190.566573195435,2.010966036966565,3.572253771865099,4.66434105112738,5247,0,224,,,16.5
"440009 (2002 JP2)",2.603430571648226,.360942377157088,28.48756255241498,153.2013731653366,103.1992304614649,1.663742152354079,3.543118990942374,4.20075354779066,4918,0,162,,,16.4
"440011 (2002 KL16)",2.613161349155405,.2509814521112656,14.77522464093887,299.1477020207154,283.1576649386889,1.957306319143347,3.269016379167462,4.22432711876346,5729,0,124,,,16.7
"440036 (2002 PX141)",2.650416996087985,.2647294084413991,11.88353531103744,323.2960764442201,354.1139807262043,1.948773672590583,3.352060319585387,4.31498722254512,4815,0,127,,,17.1
